NORAD_CAT_ID,OBJECT_NAME,OBJECT_TYPE,EPOCH,MEAN_MOTION,ECCENTRICITY,INCLINATION,RA_OF_ASC_NODE,ARG_OF_PERICENTER,MEAN_ANOMALY,BSTAR,MEAN_MOTION_DOT,MEAN_MOTION_DDOT,TLE_LINE0,TLE_LINE1,TLE_LINE2,SEMIMAJOR_AXIS,PERIOD,APOGEE,PERIGEE,DECAYED
52453.0,STARLINK-3872,PAYLOAD,2023-01-08 16:23:17,15.08831571,0.0002717,53.2161,218.6488,29.9757,330.139,0.00019541,2.822e-05,0.0,0 STARLINK-3872,1 52453U 22049C   23008.68283932  .00002822  00000-0  19541-3 0  9997,2 52453  53.2161 218.6488 0002717  29.9757 330.1390 15.08831571 37594,6917.906,95.438,541.651,537.8919999999998,0.0
52453.0,STARLINK-3872,PAYLOAD,2023-01-09 06:41:45,15.08839768,0.0002749,53.2161,215.9726,30.3033,329.8118,0.00028888,4.312e-05,0.0,0 STARLINK-3872,1 52453U 22049C   23009.27899986  .00004312  00000-0  28888-3 0  9995,2 52453  53.2161 215.9726 0002749  30.3033 329.8118 15.08839768 37844,6917.880999999999,95.438,541.648,537.844,0.0
52453.0,STARLINK-3872,PAYLOAD,2023-01-10 12:54:04,15.08851531,0.0002849,53.215,210.3234,34.1229,325.9946,0.00027707,4.125e-05,0.0,0 STARLINK-3872,1 52453U 22049C   23010.53755465  .00004125  00000-0  27707-3 0  9990,2 52453  53.2150 210.3234 0002849  34.1229 325.9946 15.08851531 38035,6917.845,95.437,541.681,537.739,0.0
52453.0,STARLINK-3872,PAYLOAD,2023-01-10 22:26:23,15.08843311,0.0002825,53.2159,208.5381,34.4648,325.6526,9.2715e-05,1.188e-05,0.0,0 STARLINK-3872,1 52453U 22049C   23010.93499720  .00001188  00000-0  92715-4 0  9991,2 52453  53.2159 208.5381 0002825  34.4648 325.6526 15.08843311 37934,6917.87,95.437,541.69,537.781,0.0
52453.0,STARLINK-3872,PAYLOAD,2023-01-11 12:44:51,15.08848013,0.0002868,53.2177,205.8621,31.787,328.3295,0.00011342,1.517e-05,0.0,0 STARLINK-3872,1 52453U 22049C   23011.53115463  .00001517  00000-0  11342-3 0  9999,2 52453  53.2177 205.8621 0002868  31.7870 328.3295 15.08848013 38023,6917.856,95.437,541.705,537.737,0.0
52453.0,STARLINK-3872,PAYLOAD,2023-01-11 19:06:24,15.0885271,0.0002888,53.2174,204.6727,33.245,326.8724,0.00017748,2.538e-05,0.0,0 STARLINK-3872,1 52453U 22049C   23011.79611118  .00002538  00000-0  17748-3 0  9995,2 52453  53.2174 204.6727 0002888  33.2450 326.8724 15.08852710 38060,6917.842,95.437,541.7040000000002,537.7090000000002,0.0
52453.0,STARLINK-3872,PAYLOAD,2023-01-12 06:14:06,15.0884565,0.0002844,53.217,202.5908,35.7804,324.3378,3.5854e-05,2.82e-06,0.0,0 STARLINK-3872,1 52453U 22049C   23012.25979307  .00000282  00000-0  35854-4 0  9997,2 52453  53.2170 202.5908 0002844  35.7804 324.3378 15.08845650 38294,6917.863,95.437,541.696,537.761,0.0
52453.0,STARLINK-3872,PAYLOAD,2023-01-12 18:57:11,15.08834194,0.0002799,53.2185,200.2123,40.356,319.7639,-1.6567e-06,-3.15e-06,0.0,0 STARLINK-3872,1 52453U 22049C   23012.78972201 -.00000315  00000-0 -16567-5 0  9991,2 52453  53.2185 200.2123 0002799  40.3560 319.7639 15.08834194 38372,6917.898,95.438,541.6990000000002,537.827,0.0
52453.0,STARLINK-3872,PAYLOAD,2023-01-12 22:07:58,15.08835801,0.0002832,53.2185,199.6178,39.1232,320.9964,9.9686e-06,-1.3e-06,0.0,0 STARLINK-3872,1 52453U 22049C   23012.92220132 -.00000130  00000-0  99686-5 0  9993,2 52453  53.2185 199.6178 0002832  39.1232 320.9964 15.08835801 38239,6917.893,95.438,541.717,537.799,0.0
52453.0,STARLINK-3872,PAYLOAD,2023-01-13 12:26:26,15.08840762,0.000287,53.2179,196.942,38.5106,321.6091,8.2998e-06,-1.57e-06,0.0,0 STARLINK-3872,1 52453U 22049C   23013.51835915 -.00000157  00000-0  82998-5 0  9997,2 52453  53.2179 196.9420 0002870  38.5106 321.6091 15.08840762 38328,6917.878000000001,95.438,541.7280000000001,537.758,0.0
52453.0,STARLINK-3872,PAYLOAD,2023-01-13 18:47:58,15.08845059,0.0002867,53.2175,195.7523,39.087,321.0329,5.0145e-05,5.1e-06,0.0,0 STARLINK-3872,1 52453U 22049C   23013.78331530  .00000510  00000-0  50145-4 0  9990,2 52453  53.2175 195.7523 0002867  39.0870 321.0329 15.08845059 38529,6917.865,95.437,541.7130000000001,537.747,0.0
52453.0,STARLINK-3872,PAYLOAD,2023-01-13 21:58:44,15.08849127,0.0002883,53.2173,195.1574,38.2398,321.8799,6.2029e-05,6.99e-06,0.0,0 STARLINK-3872,1 52453U 22049C   23013.91579258  .00000699  00000-0  62029-4 0  9998,2 52453  53.2173 195.1574 0002883  38.2398 321.8799 15.08849127 38384,6917.852,95.437,541.712,537.7230000000001,0.0
52453.0,STARLINK-3872,PAYLOAD,2023-01-14 12:17:13,15.08837313,0.0002991,53.2156,192.4804,44.7378,315.3855,1.2108e-05,-9.6e-07,0.0,0 STARLINK-3872,1 52453U 22049C   23014.51196345 -.00000096  00000-0  12108-4 0  9992,2 52453  53.2156 192.4804 0002991  44.7378 315.3855 15.08837313 38634,6917.889,95.438,541.823,537.684,0.0
52453.0,STARLINK-3872,PAYLOAD,2023-01-15 10:32:37,15.08834471,0.000303,53.2144,188.317,44.4799,315.6435,2.4528e-06,-2.5e-06,0.0,0 STARLINK-3872,1 52453U 22049C   23015.43932613 -.00000250  00000-0  24528-5 0  9992,2 52453  53.2144 188.3170 0003030  44.4799 315.6435 15.08834471 38617,6917.897,95.438,541.8580000000001,537.6659999999999,0.0
52453.0,STARLINK-3872,PAYLOAD,2023-01-15 18:29:33,15.08839072,0.0002781,53.2151,186.8313,43.6983,316.4229,4.601e-05,4.44e-06,0.0,0 STARLINK-3872,1 52453U 22049C   23015.77052332  .00000444  00000-0  46010-4 0  9993,2 52453  53.2151 186.8313 0002781  43.6983 316.4229 15.08839072 38820,6917.883000000001,95.438,541.672,537.8240000000001,0.0
52453.0,STARLINK-3872,PAYLOAD,2023-01-15 20:04:56,15.08843416,0.0002801,53.215,186.5335,44.598,315.5237,0.00011721,1.578e-05,0.0,0 STARLINK-3872,1 52453U 22049C   23015.83676197  .00001578  00000-0  11721-3 0  9990,2 52453  53.2150 186.5335 0002801  44.5980 315.5237 15.08843416 38679,6917.87,95.437,541.673,537.797,0.0
52453.0,STARLINK-3872,PAYLOAD,2023-01-16 04:01:52,15.08838058,0.0002802,53.2149,185.0454,42.6379,317.483,4.2279e-05,3.84e-06,0.0,0 STARLINK-3872,1 52453U 22049C   23016.16796476  .00000384  00000-0  42279-4 0  9997,2 52453  53.2149 185.0454 0002802  42.6379 317.4830 15.08838058 38727,6917.886,95.438,541.69,537.813,0.0
52453.0,STARLINK-3872,PAYLOAD,2023-01-16 19:55:43,15.08844208,0.0002865,53.2161,182.0722,44.6878,315.4345,9.3828e-05,1.205e-05,0.0,0 STARLINK-3872,1 52453U 22049C   23016.83036348  .00001205  00000-0  93828-4 0  9995,2 52453  53.2161 182.0722 0002865  44.6878 315.4345 15.08844208 38982,6917.868,95.437,541.714,537.751,0.0
52453.0,STARLINK-3872,PAYLOAD,2023-01-17 03:52:39,15.08836006,0.0002716,53.2155,180.5856,48.1051,312.0172,9.182e-05,1.173e-05,0.0,0 STARLINK-3872,1 52453U 22049C   23017.16156881  .00001173  00000-0  91820-4 0  9991,2 52453  53.2155 180.5856 0002716  48.1051 312.0172 15.08836006 39038,6917.893,95.438,541.636,537.879,0.0
52453.0,STARLINK-3872,PAYLOAD,2023-01-17 10:14:12,15.08833782,0.0002622,53.2174,179.3984,50.4089,309.7134,5.7807e-05,6.32e-06,0.0,0 STARLINK-3872,1 52453U 22049C   23017.42653214  .00000632  00000-0  57807-4 0  9998,2 52453  53.2174 179.3984 0002622  50.4089 309.7134 15.08833782 38915,6917.899,95.438,541.578,537.951,0.0
52453.0,STARLINK-3872,PAYLOAD,2023-01-17 15:00:21,15.08833704,0.0002719,53.2168,178.5058,51.584,308.5396,5.6377e-05,6.09e-06,0.0,0 STARLINK-3872,1 52453U 22049C   23017.62525342  .00000609  00000-0  56377-4 0  9995,2 52453  53.2168 178.5058 0002719  51.5840 308.5396 15.08833704 38949,6917.9,95.438,541.646,537.884,0.0
52453.0,STARLINK-3872,PAYLOAD,2023-01-18 03:43:26,15.08842459,0.0002767,53.2163,176.1258,51.1616,308.9623,2.5889e-05,1.24e-06,0.0,0 STARLINK-3872,1 52453U 22049C   23018.15516914  .00000124  00000-0  25889-4 0  9995,2 52453  53.2163 176.1258 0002767  51.1616 308.9623 15.08842459 39024,6917.8730000000005,95.437,541.6519999999999,537.8240000000001,0.0
52453.0,STARLINK-3872,PAYLOAD,2023-01-18 16:26:31,15.08847232,0.0002525999999999,53.216,173.7476,50.3406,309.7809,0.00015495,2.179e-05,0.0,0 STARLINK-3872,1 52453U 22049C   23018.68508316  .00002179  00000-0  15495-3 0  9993,2 52453  53.2160 173.7476 0002526  50.3406 309.7809 15.08847232 39262,6917.858,95.437,541.471,537.976,0.0
52453.0,STARLINK-3872,PAYLOAD,2023-01-18 18:01:54,15.08850513,0.000278,53.2159,173.4498,49.781000000000006,310.3425,0.00015233,2.137e-05,0.0,0 STARLINK-3872,1 52453U 22049C   23018.75132209  .00002137  00000-0  15233-3 0  9999,2 52453  53.2159 173.4498 0002780  49.7810 310.3425 15.08850513 39116,6917.848000000001,95.437,541.636,537.79,0.0
52453.0,STARLINK-3872,PAYLOAD,2023-01-19 03:34:13,15.08843372,0.0002471,53.2146,171.66299999999998,62.0903,298.0339,2.7005e-05,1.41e-06,0.0,0 STARLINK-3872,1 52453U 22049C   23019.14876815  .00000141  00000-0  27005-4 0  9995,2 52453  53.2146 171.6630 0002471  62.0903 298.0339 15.08843372 39333,6917.87,95.437,541.444,538.026,0.0
52453.0,STARLINK-3872,PAYLOAD,2023-01-20 03:25:00,15.08842546,0.0002147,53.2164,167.2015,65.8702,294.2514,6.8524e-05,8.03e-06,0.0,0 STARLINK-3872,1 52453U 22049C   23020.14236847  .00000803  00000-0  68524-4 0  9998,2 52453  53.2164 167.2015 0002147  65.8702 294.2514 15.08842546 39323,6917.8730000000005,95.437,541.2230000000001,538.252,0.0
52453.0,STARLINK-3872,PAYLOAD,2023-01-20 16:08:05,15.08848547,0.0002287,53.217,164.8224,70.0574,290.0664,0.00013744,1.9e-05,0.0,0 STARLINK-3872,1 52453U 22049C   23020.67228237  .00001900  00000-0  13744-3 0  9992,2 52453  53.2170 164.8224 0002287  70.0574 290.0664 15.08848547 39568,6917.854,95.437,541.3009999999999,538.137,0.0
52453.0,STARLINK-3872,PAYLOAD,2023-01-21 09:37:20,15.08835521,0.0002106999999999,53.2167,161.5538,70.6384,289.4836,0.00010717,1.418e-05,0.0,0 STARLINK-3872,1 52453U 22049C   23021.40093233  .00001418  00000-0  10717-3 0  9991,2 52453  53.2167 161.5538 0002107  70.6384 289.4836 15.08835521 39675,6917.894,95.438,541.217,538.3009999999999,0.0
52453.0,STARLINK-3872,PAYLOAD,2023-01-21 15:58:52,15.08848153,0.0002363,53.2155,160.3662,62.212,297.9112,0.00018236,2.616e-05,0.0,0 STARLINK-3872,1 52453U 22049C   23021.66588672  .00002616  00000-0  18236-3 0  9990,2 52453  53.2155 160.3662 0002363  62.2120 297.9112 15.08848153 39717,6917.855,95.437,541.355,538.086,0.0
